[{"OBJECT_NAME":"GECAM-A","OBJECT_ID":"2020-094A","EPOCH":"2026-02-27T03:21:27.347040","MEAN_MOTION":15.0033434,"ECCENTRICITY":0.00107,"INCLINATION":28.9961,"RA_OF_ASC_NODE":20.3521,"ARG_OF_PERICENTER":243.6219,"MEAN_ANOMALY":116.328,"EPHEMERIS_TYPE":0,"CLASSIFICATION_TYPE":"U","NORAD_CAT_ID":47234,"ELEMENT_SET_NO":999,"REV_AT_EPOCH":28514,"BSTAR":0.00017329,"MEAN_MOTION_DOT":2.379e-5,"MEAN_MOTION_DDOT":0},{"OBJECT_NAME":"CZ-6A DEB","OBJECT_ID":"2024-140PK","EPOCH":"2026-03-09T14:50:49.125696","MEAN_MOTION":14.82233524,"ECCENTRICITY":0.0082184,"INCLINATION":89.0613,"RA_OF_ASC_NODE":285.2407,"ARG_OF_PERICENTER":189.4806,"MEAN_ANOMALY":170.4873,"EPHEMERIS_TYPE":0,"CLASSIFICATION_TYPE":"U","NORAD_CAT_ID":61117,"ELEMENT_SET_NO":999,"REV_AT_EPOCH":8234,"BSTAR":0.0019702,"MEAN_MOTION_DOT":0.0001671,"MEAN_MOTION_DDOT":0}]
